NORAD_CAT_ID,OBJECT_NAME,OBJECT_TYPE,EPOCH,MEAN_MOTION,ECCENTRICITY,INCLINATION,RA_OF_ASC_NODE,ARG_OF_PERICENTER,MEAN_ANOMALY,BSTAR,MEAN_MOTION_DOT,MEAN_MOTION_DDOT,TLE_LINE0,TLE_LINE1,TLE_LINE2,SEMIMAJOR_AXIS,PERIOD,APOGEE,PERIGEE,DECAYED
52557.0,STARLINK-3943,PAYLOAD,2023-03-03 09:59:37,15.08907981,0.0001572,53.2155,37.4158,93.7899,266.3273,0.0026666,0.00042486,0.0,0 STARLINK-3943,1 52557U 22051AA  23062.41640841  .00042486  00000-0  26666-2 0  9997,2 52557  53.2155  37.4158 0001572  93.7899 266.3273 15.08907981 45113,6917.673,95.433,540.625,538.45,0.0
52557.0,STARLINK-3943,PAYLOAD,2023-03-04 08:15:00,15.08886827,0.000121,53.216,33.2528,95.5721,264.5409,0.0026895,0.00042831,0.0,0 STARLINK-3943,1 52557U 22051AA  23063.34376119  .00042831  00000-0  26895-2 0  9992,2 52557  53.2160  33.2528 0001210  95.5721 264.5409 15.08886827 45258,6917.737,95.435,540.439,538.765,0.0
52557.0,STARLINK-3943,PAYLOAD,2023-03-04 09:50:23,15.08896124,0.000121,53.216,32.9558,101.566,258.5468,0.0030291,0.00048325,0.0,0 STARLINK-3943,1 52557U 22051AA  23063.40999863  .00048325  00000-0  30291-2 0  9995,2 52557  53.2160  32.9558 0001210 101.5660 258.5468 15.08896124 45199,6917.709,95.434,540.411,538.737,0.0
52557.0,STARLINK-3943,PAYLOAD,2023-03-05 03:19:39,15.08841814,0.0001411,53.2162,29.684,105.1575,254.9574,0.0016514,0.00026093,0.0,0 STARLINK-3943,1 52557U 22051AA  23064.13865108  .00026093  00000-0  16514-2 0  9990,2 52557  53.2162  29.6840 0001411 105.1575 254.9574 15.08841814 45370,6917.875,95.437,540.716,538.764,0.0
52557.0,STARLINK-3943,PAYLOAD,2023-03-06 04:45:49,15.08874431,0.0001088,53.2155,24.9263,80.2748,279.8367,0.001887,0.000299,0.0,0 STARLINK-3943,1 52557U 22051AA  23065.19849053  .00029900  00000-0  18870-2 0  9995,2 52557  53.2155  24.9263 0001088  80.2748 279.8367 15.08874431 45539,6917.775,95.435,540.393,538.887,0.0
52557.0,STARLINK-3943,PAYLOAD,2023-03-07 04:36:37,15.08854499,0.0001419,53.2159,20.4652,75.7724,284.3425,0.0019226,0.00030455,0.0,0 STARLINK-3943,1 52557U 22051AA  23066.19209950  .00030455  00000-0  19226-2 0  9995,2 52557  53.2159  20.4652 0001419  75.7724 284.3425 15.08854499 45681,6917.836,95.437,540.683,538.719,0.0
52557.0,STARLINK-3943,PAYLOAD,2023-03-08 02:52:01,15.08862981,0.0001292,53.2157,16.302,94.5565,265.5575,0.0019019,0.0003013,0.0,0 STARLINK-3943,1 52557U 22051AA  23067.11945959  .00030130  00000-0  19019-2 0  9994,2 52557  53.2157  16.3020 0001292  94.5565 265.5575 15.08862981 45821,6917.81,95.436,540.569,538.781,0.0
52557.0,STARLINK-3943,PAYLOAD,2023-03-08 23:32:02,15.08864494,0.0001411,53.2166,12.4363,107.7978,252.3168,0.0027334,0.00043512,0.0,0 STARLINK-3943,1 52557U 22051AA  23067.98058374  .00043512  00000-0  27334-2 0  9992,2 52557  53.2166  12.4363 0001411 107.7978 252.3168 15.08864494 45953,6917.806,95.436,540.647,538.694,0.0
52557.0,STARLINK-3943,PAYLOAD,2023-03-09 02:42:48,15.08859703,0.0001347,53.2162,11.8422,68.3174,291.7962,0.0021338,0.00033853,0.0,0 STARLINK-3943,1 52557U 22051AA  23068.11306411  .00033853  00000-0  21338-2 0  9991,2 52557  53.2162  11.8422 0001347  68.3174 291.7962 15.08859703 45974,6917.82,95.436,540.617,538.753,0.0
52557.0,STARLINK-3943,PAYLOAD,2023-03-10 02:33:35,15.08873365,0.0001305,53.2164,7.3809,76.1015,284.0123,0.0014939,0.00023589,0.0,0 STARLINK-3943,1 52557U 22051AA  23069.10665518  .00023589  00000-0  14939-2 0  9991,2 52557  53.2164   7.3809 0001305  76.1015 284.0123 15.08873365 46122,6917.778,95.435,540.546,538.741,0.0
52557.0,STARLINK-3943,PAYLOAD,2023-03-11 00:49:00,15.08824599,0.0001198,53.2172,3.218,117.5056,242.6058,0.00096245,0.00015056,0.0,0 STARLINK-3943,1 52557U 22051AA  23070.03402934  .00015056  00000-0  96245-3 0  9997,2 52557  53.2172   3.2180 0001198 117.5056 242.6058 15.08824599 46260,6917.927,95.439,540.621,538.964,0.0
52557.0,STARLINK-3943,PAYLOAD,2023-03-11 07:10:32,15.0883578,0.0001013,53.2172,2.0281,88.5015,271.6093,0.00097162,0.00015207,0.0,0 STARLINK-3943,1 52557U 22051AA  23070.29899137  .00015207  00000-0  97162-3 0  9997,2 52557  53.2172   2.0281 0001013  88.5015 271.6093 15.08835780 46239,6917.893,95.438,540.459,539.058,0.0
52557.0,STARLINK-3943,PAYLOAD,2023-03-12 05:25:56,15.08874369,0.000108,53.217,357.8678,77.5209,282.5904,0.0024564,0.00039059,0.0,0 STARLINK-3943,1 52557U 22051AA  23071.22634733  .00039059  00000-0  24564-2 0  9996,2 52557  53.2170 357.8678 0001080  77.5209 282.5904 15.08874369 46446,6917.775,95.435,540.387,538.893,0.0
52557.0,STARLINK-3943,PAYLOAD,2023-03-13 05:16:43,15.08865419,0.0001648,53.2175,353.4051,68.3113,291.8055,0.0011658,0.00018327,0.0,0 STARLINK-3943,1 52557U 22051AA  23072.21994364  .00018327  00000-0  11658-2 0  9990,2 52557  53.2175 353.4051 0001648  68.3113 291.8055 15.08865419 46592,6917.803,95.436,540.808,538.528,0.0
52557.0,STARLINK-3943,PAYLOAD,2023-03-14 03:32:07,15.08844676,0.0001549,53.216,349.2428,86.8534,273.2636,0.0016311,0.0002577,0.0,0 STARLINK-3943,1 52557U 22051AA  23073.14731438  .00025770  00000-0  16311-2 0  9995,2 52557  53.2160 349.2428 0001549  86.8534 273.2636 15.08844676 46736,6917.866,95.437,540.803,538.66,0.0
52557.0,STARLINK-3943,PAYLOAD,2023-03-14 11:29:03,15.08845458,0.0001441,53.2158,347.7568,96.2755,263.8402,0.0015426,0.00024351,0.0,0 STARLINK-3943,1 52557U 22051AA  23073.47851375  .00024351  00000-0  15426-2 0  9994,2 52557  53.2158 347.7568 0001441  96.2755 263.8402 15.08845458 46715,6917.864,95.437,540.726,538.732,0.0
52557.0,STARLINK-3943,PAYLOAD,2023-03-15 03:22:53,15.0889782,0.0001566,53.2154,344.7818,98.5857,261.5313,0.0024038,0.00038237,0.0,0 STARLINK-3943,1 52557U 22051AA  23074.14089950  .00038237  00000-0  24038-2 0  9998,2 52557  53.2154 344.7818 0001566  98.5857 261.5313 15.08897820 46886,6917.704,95.434,540.652,538.485,0.0
52557.0,STARLINK-3943,PAYLOAD,2023-03-15 22:27:31,15.08853945,0.0001035,53.2163,341.2137,128.2826,231.8259,0.0015268,0.00024104,0.0,0 STARLINK-3943,1 52557U 22051AA  23074.93578087  .00024104  00000-0  15268-2 0  9992,2 52557  53.2163 341.2137 0001035 128.2826 231.8259 15.08853945 46935,6917.838,95.437,540.419,538.987,0.0
52557.0,STARLINK-3943,PAYLOAD,2023-03-16 04:49:03,15.08876564,0.0001301,53.2167,340.0238,74.4445,285.6691,0.0025894,0.00041205,0.0,0 STARLINK-3943,1 52557U 22051AA  23075.20073986  .00041205  00000-0  25894-2 0  9998,2 52557  53.2167 340.0238 0001301  74.4445 285.6691 15.08876564 47045,6917.769,95.435,540.534,538.734,0.0
52557.0,STARLINK-3943,PAYLOAD,2023-03-16 06:24:26,15.08884385,0.000133,53.2169,339.7263,77.3571,282.7569,0.0027333,0.00043534,0.0,0 STARLINK-3943,1 52557U 22051AA  23075.26697782  .00043534  00000-0  27333-2 0  9997,2 52557  53.2169 339.7263 0001330  77.3571 282.7569 15.08884385 46988,6917.745,95.435,540.53,538.69,0.0
52557.0,STARLINK-3943,PAYLOAD,2023-03-16 20:42:56,15.08820509,0.0001825,53.2165,337.0489,114.0961,246.0223,0.001311,0.00020627,0.0,0 STARLINK-3943,1 52557U 22051AA  23075.86315192  .00020627  00000-0  13110-2 0  9991,2 52557  53.2165 337.0489 0001825 114.0961 246.0223 15.08820509 47075,6917.94,95.439,541.067,538.542,0.0
52557.0,STARLINK-3943,PAYLOAD,2023-03-16 22:18:19,15.08828118,0.0001449,53.2167,336.7519,109.4368,250.6781,0.00097847,0.00015314,0.0,0 STARLINK-3943,1 52557U 22051AA  23075.92939151  .00015314  00000-0  97847-3 0  9992,2 52557  53.2167 336.7519 0001449 109.4368 250.6781 15.08828118 47151,6917.917,95.438,540.784,538.779,0.0
52557.0,STARLINK-3943,PAYLOAD,2023-03-17 03:04:29,15.0883023,0.0001441,53.2167,335.8597,100.8686,259.2469,0.0019608,0.00031048,0.0,0 STARLINK-3943,1 52557U 22051AA  23076.12811557  .00031048  00000-0  19608-2 0  9994,2 52557  53.2167 335.8597 0001441 100.8686 259.2469 15.08830230 47119,6917.91,95.438,540.772,538.778,0.0
52557.0,STARLINK-3943,PAYLOAD,2023-03-18 02:55:16,15.08859405,0.0001268,53.2172,331.4009,80.1673,279.9462,0.0012758,0.00020085,0.0,0 STARLINK-3943,1 52557U 22051AA  23077.12171723  .00020085  00000-0  12758-2 0  9997,2 52557  53.2172 331.4009 0001268  80.1673 279.9462 15.08859405 47339,6917.821,95.436,540.563,538.809,0.0
52557.0,STARLINK-3943,PAYLOAD,2023-03-18 20:24:30,15.08852746,0.0001308,53.2158,328.1254,74.4759,285.6377,0.00059562,9.207e-05,0.0,0 STARLINK-3943,1 52557U 22051AA  23077.85035683  .00009207  00000-0  59562-3 0  9999,2 52557  53.2158 328.1254 0001308  74.4759 285.6377 15.08852746 47446,6917.841,95.437,540.611,538.802,0.0
52557.0,STARLINK-3943,PAYLOAD,2023-03-18 21:59:53,15.08854137,0.0001328,53.2159,327.8282,73.1626,286.9512,0.00061035,9.443e-05,0.0,0 STARLINK-3943,1 52557U 22051AA  23077.91659618  .00009443  00000-0  61035-3 0  9996,2 52557  53.2159 327.8282 0001328  73.1626 286.9512 15.08854137 47389,6917.837,95.437,540.621,538.783,0.0
52557.0,STARLINK-3943,PAYLOAD,2023-03-19 09:07:35,15.08854586,0.0001247,53.2162,325.749,81.2824,278.8309,0.00045971,7.039e-05,0.0,0 STARLINK-3943,1 52557U 22051AA  23078.38027166  .00007039  00000-0  45971-3 0  9995,2 52557  53.2162 325.7490 0001247  81.2824 278.8309 15.08854586 47451,6917.836,95.437,540.563,538.838,0.0
52557.0,STARLINK-3943,PAYLOAD,2023-03-19 20:15:17,15.08834441,0.000151,53.2172,323.6711,99.0073,261.109,-3.4368e-05,-8.35e-06,0.0,0 STARLINK-3943,1 52557U 22051AA  23078.84395579 -.00000835  00000-0 -34368-4 0  9990,2 52557  53.2172 323.6711 0001510  99.0073 261.1090 15.08834441 47596,6917.897,95.438,540.807,538.718,0.0
52557.0,STARLINK-3943,PAYLOAD,2023-03-19 21:50:40,15.08839328,0.0001365,53.2164,323.3725,90.5634,269.5515,-4.1487e-05,-9.48e-06,0.0,0 STARLINK-3943,1 52557U 22051AA  23078.91019533 -.00000948  00000-0 -41487-4 0  9996,2 52557  53.2164 323.3725 0001365  90.5634 269.5515 15.08839328 47533,6917.882,95.438,540.692,538.803,0.0
52557.0,STARLINK-3943,PAYLOAD,2023-03-20 01:01:27,15.08845455,0.0001485,53.2172,322.7801,94.4693,265.6469,0.00012667,1.729e-05,0.0,0 STARLINK-3943,1 52557U 22051AA  23079.04267440  .00001729  00000-0  12667-3 0  9996,2 52557  53.2172 322.7801 0001485  94.4693 265.6469 15.08845455 47624,6917.864,95.437,540.756,538.701,0.0
